TDRS 3                  
1 19548U 88091B   22138.43051667 -.00000303  00000+0  00000+0 0  9996
2 19548  13.7373 351.5585 0035765 336.1562  14.5217  1.00268067110436
FLTSATCOM 8 (USA 46)    
1 20253U 89077A   22137.61660906 -.00000080  00000+0  00000+0 0  9999
2 20253  12.8694   0.4389 0006832  89.5511  79.1546  1.00272287245659
SKYNET 4C               
1 20776U 90079A   22138.23159178  .00000122  00000+0  00000+0 0  9992
2 20776  13.8153   0.2872 0003104  57.0087 295.3497  1.00274421115994
TDRS 5                  
1 21639U 91054B   22138.39612743  .00000080  00000+0  00000+0 0  9997
2 21639  14.2411   4.8892 0026749   2.2511 203.8549  1.00268959112764
TDRS 6                  
1 22314U 93003B   22138.13488622 -.00000298  00000+0  00000+0 0  9995
2 22314  14.1303   8.1280 0011332 105.2337 125.1828  1.00274193107457
UFO 2 (USA 95)          
1 22787U 93056A   22137.80017709  .00000125  00000+0  00000+0 0  9992
2 22787  11.4607  11.3182 0003348  40.6481 140.3087  1.00268117103591
USA 99 (MILSTAR-1 1)    
1 22988U 94009A   22138.26338101 -.00000198  00000+0  00000+0 0  9998
2 22988  15.3006  43.4387 0001625  19.7083 177.5618  1.00269361 18010
USA 107 (DSP 17)        
1 23435U 94084A   22138.26705412 -.00000170  00000+0  00000+0 0  9992
2 23435  14.5858   6.0045 0002437  85.8980 143.7068  1.00270291 18009
UFO 4 (USA 108)         
1 23467U 95003A   22138.52302277 -.00000025  00000+0  00000+0 0  9999
2 23467   9.8529  17.9812 0005429  62.1352 156.6118  1.00272576100003
AMSC 1                  
1 23553U 95019A   22138.29194347 -.00000095  00000+0  00000+0 0  9990
2 23553  11.9196  26.4196 0007065  23.6007 183.5498  1.00272417 99225
TDRS 7                  
1 23613U 95035B   22138.60501838 -.00000204  00000+0  00000+0 0  9999
2 23613  13.9898 358.8114 0029979  50.0594 129.8501  1.00267944 98303
USA 113                 
1 23628U 95038A   22137.85235186 -.00000340  00000+0  00000+0 0  9995
2 23628  12.0520  25.2346 0001440   5.3407 255.6270  1.00271004 18015
USA 115 (MILSTAR-1 2)   
1 23712U 95060A   22138.27897992 -.00000022  00000+0  00000+0 0  9997
2 23712  13.5148  14.5181 0002418  43.0620 158.7670  1.00271832 17937
INMARSAT 3-F1           
1 23839U 96020A   22138.07698463 -.00000212  00000+0  00000+0 0  9995
2 23839   7.4795  58.3124 0008168  18.4433 164.2782  1.00001621 95340
INMARSAT 3-F2           
1 24307U 96053A   22138.57987800  .00000122  00000+0  00000+0 0  9992
2 24307   6.4522  67.2073 0010789   2.2592 231.5922  0.99988624 94010
AMC-1 (GE-1)            
1 24315U 96054A   22138.59673833  .00000065  00000+0  00000+0 0  9998
2 24315   5.5510  73.3982 0003767 340.5022 266.2762  1.00271345 31372
INMARSAT 3-F3           
1 24674U 96070A   22137.81024977 -.00000275  00000+0  00000+0 0  9991
2 24674   7.0704  61.9474 0007134   7.3139 200.6816  0.99984470 92994
GALAXY 25 (G-25)        
1 24812U 97026A   22138.61648576 -.00000003  00000+0  00000+0 0  9992
2 24812   3.6188  83.9387 0006434 353.2820  87.1002  1.00272224 91438
INTELSAT 5 (IS-5)       
1 24916U 97046A   22138.58256425 -.00000072  00000+0  00000+0 0  9999
2 24916   7.1668  61.2702 0003567  54.9506 137.5237  1.00158557 90672
AMC-3 (GE-3)            
1 24936U 97050A   22138.46454247 -.00000259  00000+0  00000+0 0  9992
2 24936   4.4735  79.7523 0003279 340.5278 271.0762  1.00270879 37483
USA 134                 
1 25019U 97065A   22138.43940191 -.00000061  00000+0  00000+0 0  9997
2 25019  11.0205  31.6817 0006319  13.9353 236.2813  1.00268347 18002
ASTRA 1G                
1 25071U 97076A   22138.01355716  .00000118  00000+0  00000+0 0  9996
2 25071   6.1776  68.5201 0003862 342.0626 209.3659  1.00272651 89553
INMARSAT 3-F5           
1 25153U 98006B   22138.42580845 -.00000288  00000+0  00000+0 0  9998
2 25153   6.3354  66.0244 0005431 356.0885 273.1997  1.00266972 88949
UFO 8 (USA 138)         
1 25258U 98016A   22138.58677348 -.00000023  00000+0  00000+0 0  9994
2 25258   9.3956  30.0255 0004110  41.7755 187.7103  1.00278192 88908
ASTRA 2A                
1 25462U 98050A   22138.58620821  .00000145  00000+0  00000+0 0  9997
2 25462   3.3314  85.8627 0000564  30.5551  10.0387  1.00421760 31391
SKYNET 4E               
1 25639U 99009B   22137.93763597 -.00000035  00000+0  00000+0 0  9993
2 25639  11.2335  17.0923 0002943  11.2310 183.5926  1.00270614 36431
ABS-7                   
1 25894U 99046A   22138.40985500 -.00000237  00000+0  00000+0 0  9994
2 25894   2.6882  87.9495 0006638 349.5346 236.6641  0.99961153 82174
ABS-6                   
1 25924U 99053A   22138.57067228 -.00000118  00000+0  00000+0 0  9990
2 25924   0.0269 351.0382 0003649  92.1049 157.5521  1.00268961 82908
AMC-4 (GE-4)            
1 25954U 99060A   22138.59105174  .00000090  00000+0  00000+0 0  9994
2 25954   1.4453  92.1404 0003356 327.2752 254.7094  1.00271561 28609
UFO 10 (USA 146)        
1 25967U 99063A   22138.00509701 -.00000188  00000+0  00000+0 0  9990
2 25967   8.6750  33.5451 0004589  54.9461 126.0540  1.00268878 82393
GALAXY 11 (G-11)        
1 26038U 99071A   22138.43939451 -.00000160  00000+0  00000+0 0  9995
2 26038   2.9212  88.1643 0000403   9.7776 203.2336  1.00270596 82133
USA 148                 
1 26052U 00001A   22138.59677622  .00000038  00000+0  00000+0 0  9995
2 26052   9.4938  42.5901 0001535  12.8422 216.0591  1.00272065 18011
ASIASTAR                
1 26107U 00016A   22138.31758889 -.00000332  00000+0  00000+0 0  9995
2 26107   5.6110  72.2198 0004996 349.7271  33.3850  1.00270628 80973
USA 149 (DSP 20)        
1 26356U 00024A   22138.46170537  .00000093  00000+0  00000+0 0  9997
2 26356  12.0618  21.7092 0000466 193.5093  21.4213  1.00278012 17966
TDRS 8                  
1 26388U 00034A   22137.54915338 -.00000233  00000+0  00000+0 0  9994
2 26388  10.3197  42.7622 0024186 344.1883 135.2664  1.00275933 80213
INTELSAT 9 (IS-9)       
1 26451U 00043A   22138.23984434 -.00000286  00000+0  00000+0 0  9993
2 26451   7.1517  61.4446 0003183 358.9864 211.8219  1.00271986 29193
NSS-11 (AAP-1)          
1 26554U 00059A   22138.59256385  .00000027  00000+0  00000+0 0  9992
2 26554   0.0550  89.5003 0003254 312.7578 223.3224  1.00270915 26344
USA 153                 
1 26575U 00065A   22138.61971646 -.00000325  00000+0  00000+0 0  9991
2 26575   9.0518  45.9202 0001978   8.0817 179.8551  1.00273111 17988
AMC-6 (GE-6)            
1 26580U 00067A   22138.58610016  .00000107  00000+0  00000+0 0  9993
2 26580   0.0118 332.9467 0002847  84.2113 251.0772  1.00270196 78978
INTELSAT 1R (IS-1R)     
1 26608U 00072A   22138.56877760 -.00000137  00000+0  00000+0 0  9993
2 26608   4.4032  80.4490 0000752 225.6002 292.0608  1.00271003 26372
ANIK F1                 
1 26624U 00076A   22138.53481102 -.00000060  00000+0  00000+0 0  9998
2 26624   1.3611  92.9100 0010717 344.6663 241.9924  1.00271617 28199
ASTRA 2D                
1 26638U 00081A   22138.01434213  .00000131  00000+0  00000+0 0  9991
2 26638   7.2307  60.5167 0002264 338.1205 225.8616  1.00271315 37951
AMC-8 (GE-8)            
1 26639U 00081B   22138.59193523  .00000089  00000+0  00000+0 0  9993
2 26639   2.3731  88.8856 0002793 325.1800 260.2831  1.00271507 78388
USA 157 (MILSTAR-2 2)   
1 26715U 01009A   22138.36546299  .00000011  00000+0  00000+0 0  9991
2 26715   9.9874  27.3133 0002405  45.2986 170.8310  1.00276761 18003
EUTELSAT 133 WEST A     
1 26719U 01011A   22138.59421154  .00000078  00000+0  00000+0 0  9998
2 26719   3.6419  83.0363 0002633 356.8564 237.4244  1.00269747 77594
INTELSAT 10 (IS-10)     
1 26766U 01019A   22138.59404175  .00000034  00000+0  00000+0 0  9994
2 26766   5.5100  73.6174 0004757 341.8679 212.4086  1.00270833 30672
INTELSAT 901 (IS-901)   
1 26824U 01024A   22138.43470314 -.00000200  00000+0  00000+0 0  9992
2 26824   0.0404  86.9440 0000915 329.2775 308.8981  1.00266212  8020
ASTRA 2C                
1 26853U 01025A   22138.46454272 -.00000257  00000+0  00000+0 0  9995
2 26853   4.4984  79.5589 0003153 345.3673 265.9193  1.00274507 30094
USA 159 (DSP 21)        
1 26880U 01033A   22138.13008094 -.00000298  00000+0  00000+0 0  9990
2 26880  11.3996  25.9724 0000937 101.7068 105.8198  1.00266497 18013
INTELSAT 902 (IS-902)   
1 26900U 01039A   22138.43025501 -.00000280  00000+0  00000+0 0  9995
2 26900   2.3316  89.3087 0003246 337.0181 274.5705  1.00271068 75745
USA 164 (MILSTAR-2 3)   
1 27168U 02001A   22137.86994433  .00000101  00000+0  00000+0 0  9998
2 27168   9.4770  29.1430 0001794   5.1351 173.3798  1.00273253 16691
ECHOSTAR 7              
1 27378U 02006A   22138.61497635 -.00000341  00000+0  00000+0 0  9999
2 27378   0.1678  91.9123 0006294 329.7840 170.3317  0.99846049 35650
INTELSAT 904 (IS-904)   
1 27380U 02007A   22138.43435427 -.00000212  00000+0  00000+0 0  9991
2 27380   3.1646  86.2327 0003358 340.6300 296.1011  1.00270687 36814
TDRS 9                  
1 27389U 02011A   22138.34470519 -.00000287  00000+0  00000+0 0  9998
2 27389   8.9578  61.0918 0026112 303.6800 293.1442  1.00271945 75494
ASTRA 3A                
1 27400U 02015B   22138.44624358 -.00000203  00000+0  00000+0 0  9997
2 27400   7.3355  59.3735 0001817 351.7825 258.8325  1.00270711 73774
NSS-7                   
1 27414U 02019A   22138.14917959 -.00000156  00000+0  00000+0 0  9992
2 27414   5.8311  71.5591 0002553 340.2761 217.6697  1.00271577 73619
DIRECTV 5 (TEMPO 1)     
1 27426U 02023A   22138.53302377 -.00000053  00000+0  00000+0 0  9991
2 27426   1.0538  93.4551 0003674 333.0296 251.4869  1.00271497 73177
INTELSAT 905 (IS-905)   
1 27438U 02027A   22138.43531367 -.00000182  00000+0  00000+0 0  9993
2 27438   2.9860  86.9789 0002870 330.9474 310.3892  1.00270191 36416
GALAXY 3C (G-3C)        
1 27445U 02030A   22138.38062000 -.00000147  00000+0  00000+0 0  9993
2 27445   0.0112 348.6714 0001384 337.1581 312.1653  1.00267340 31553
